{
  "norad_id": 44114,
  "name": "O3B FM17",
  "history": [
    {
      "epoch": "2026-03-28T13:31:15.693312",
      "apogee_km": 8069.533233092569,
      "perigee_km": 8062.250553724515,
      "latitude_deg": -0.001514986509352866,
      "longitude_deg": 85.48410367988981,
      "semi_major_axis_km": 14444.028893408542,
      "eccentricity": 0.0002521,
      "inclination_deg": 0.0363,
      "raan_deg": 346.6487,
      "arg_perigee_deg": 26.3307,
      "mean_anomaly_deg": 347.0223,
      "mean_motion_rev_day": 5.00115413
    },
    {
      "epoch": "2026-03-28T23:06:56.232576",
      "apogee_km": 8069.749604634927,
      "perigee_km": 8062.033604554351,
      "latitude_deg": -0.005602496433228655,
      "longitude_deg": 123.86248063971289,
      "semi_major_axis_km": 14444.028604594638,
      "eccentricity": 0.0002671,
      "inclination_deg": 0.0363,
      "raan_deg": 346.8044,
      "arg_perigee_deg": 10.9157,
      "mean_anomaly_deg": 2.274,
      "mean_motion_rev_day": 5.00115428
    }
  ]
}